*******************************************************************************
Ephemeris / WWW_USER Mon Mar 24 07:01:13 2025 Pasadena, USA      / Horizons    
*******************************************************************************
Target body name: Triton (801)                    {source: nep097_merged}
Center body name: Earth (399)                     {source: nep097_merged}
Center-site name: Mauna Kea
*******************************************************************************
Start time      : A.D. 2018-Dec-24 03:59:00.0000 UT      
Stop  time      : A.D. 2018-Dec-24 16:43:00.0000 UT      
Step-size       : 1 minutes
*******************************************************************************
Target pole/equ : IAU_TRITON                      {East-longitude positive}
Target radii    : 1352.6, 1352.6, 1352.6 km       {Equator_a, b, pole_c}       
Center geodetic : 204.5278, 19.8260847, 4.21024   {E-lon(deg),Lat(deg),Alt(km)}
Center cylindric: 204.5278, 6006.35451, 2151.0229 {E-lon(deg),Dxy(km),Dz(km)}
Center pole/equ : ITRF93                          {East-longitude positive}
Center radii    : 6378.137, 6378.137, 6356.752 km {Equator_a, b, pole_c}       
Target primary  : Neptune
Vis. interferer : MOON (R_eq= 1737.400) km        {source: DE441}
Rel. light bend : Sun                             {source: nep097_merged}
Rel. lght bnd GM: 1.3271E+11 km^3/s^2                                          
Atmos refraction: NO (AIRLESS)
RA format       : HMS
Time format     : CAL 
Calendar mode   : Mixed Julian/Gregorian
RTS-only print  : NO       
EOP file        : eop.250321.p250617                                           
EOP coverage    : DATA-BASED 1962-JAN-20 TO 2025-MAR-21. PREDICTS-> 2025-JUN-16
Units conversion: 1 au= 149597870.700 km, c= 299792.458 km/s, 1 day= 86400.0 s 
Table cut-offs 1: Elevation (-90.0deg=NO ),Airmass (>38.000=NO), Daylight (YES)
Table cut-offs 2: Solar elongation (  0.0,180.0=NO ),Local Hour Angle( 0.0=NO )
Table cut-offs 3: RA/DEC angular rate (     0.0=NO )                           
*******************************************************************************
 Date__(UT)__HR:MN     R.A._________(ICRF)_________DEC
******************************************************
$$SOE
 2018-Dec-24 15:39 Am  23 01 22.593689 -07 19 01.60171
 2018-Dec-24 15:40 Am  23 01 22.595721 -07 19 01.58826
 2018-Dec-24 15:41 Am  23 01 22.597752 -07 19 01.57480
 2018-Dec-24 15:42 Am  23 01 22.599784 -07 19 01.56134
 2018-Dec-24 15:43 Am  23 01 22.601815 -07 19 01.54786
 2018-Dec-24 15:44 Am  23 01 22.603847 -07 19 01.53439
 2018-Dec-24 15:45 Am  23 01 22.605879 -07 19 01.52090
 2018-Dec-24 15:46 Am  23 01 22.607910 -07 19 01.50741
 2018-Dec-24 15:47 Am  23 01 22.609942 -07 19 01.49391
 2018-Dec-24 15:48 Am  23 01 22.611974 -07 19 01.48040
 2018-Dec-24 15:49 Am  23 01 22.614006 -07 19 01.46688
 2018-Dec-24 15:50 Am  23 01 22.616038 -07 19 01.45336
 2018-Dec-24 15:51 Am  23 01 22.618070 -07 19 01.43983
 2018-Dec-24 15:52 Am  23 01 22.620102 -07 19 01.42629
 2018-Dec-24 15:53 Am  23 01 22.622134 -07 19 01.41275
 2018-Dec-24 15:54 Am  23 01 22.624166 -07 19 01.39920
 2018-Dec-24 15:55 Am  23 01 22.626198 -07 19 01.38564
 2018-Dec-24 15:56 Am  23 01 22.628230 -07 19 01.37207
 2018-Dec-24 15:57 Am  23 01 22.630262 -07 19 01.35850
 2018-Dec-24 15:58 Am  23 01 22.632294 -07 19 01.34492
 2018-Dec-24 15:59 Am  23 01 22.634326 -07 19 01.33133
 2018-Dec-24 16:00 Am  23 01 22.636358 -07 19 01.31773
 2018-Dec-24 16:01 Am  23 01 22.638391 -07 19 01.30413
 2018-Dec-24 16:02 Am  23 01 22.640423 -07 19 01.29052
 2018-Dec-24 16:03 Nm  23 01 22.642455 -07 19 01.27690
 2018-Dec-24 16:04 Nm  23 01 22.644487 -07 19 01.26328
 2018-Dec-24 16:05 Nm  23 01 22.646520 -07 19 01.24965
 2018-Dec-24 16:06 Nm  23 01 22.648552 -07 19 01.23601
 2018-Dec-24 16:07 Nm  23 01 22.650584 -07 19 01.22236
 2018-Dec-24 16:08 Nm  23 01 22.652617 -07 19 01.20870
 2018-Dec-24 16:09 Nm  23 01 22.654649 -07 19 01.19504
 2018-Dec-24 16:10 Nm  23 01 22.656682 -07 19 01.18137
 2018-Dec-24 16:11 Nm  23 01 22.658714 -07 19 01.16770
 2018-Dec-24 16:12 Nm  23 01 22.660747 -07 19 01.15401
 2018-Dec-24 16:13 Nm  23 01 22.662779 -07 19 01.14032
 2018-Dec-24 16:14 Nm  23 01 22.664811 -07 19 01.12662
 2018-Dec-24 16:15 Nm  23 01 22.666844 -07 19 01.11292
 2018-Dec-24 16:16 Nm  23 01 22.668876 -07 19 01.09920
 2018-Dec-24 16:17 Nm  23 01 22.670909 -07 19 01.08548
 2018-Dec-24 16:18 Nm  23 01 22.672941 -07 19 01.07176
 2018-Dec-24 16:19 Nm  23 01 22.674974 -07 19 01.05802
 2018-Dec-24 16:20 Nm  23 01 22.677006 -07 19 01.04428
 2018-Dec-24 16:21 Nm  23 01 22.679039 -07 19 01.03053
 2018-Dec-24 16:22 Nm  23 01 22.681071 -07 19 01.01677
 2018-Dec-24 16:23 Nm  23 01 22.683104 -07 19 01.00300
 2018-Dec-24 16:24 Nm  23 01 22.685136 -07 19 00.98923
 2018-Dec-24 16:25 Nm  23 01 22.687169 -07 19 00.97545
 2018-Dec-24 16:26 Nm  23 01 22.689202 -07 19 00.96166
 2018-Dec-24 16:27 Nm  23 01 22.691234 -07 19 00.94787
 2018-Dec-24 16:28 Nm  23 01 22.693267 -07 19 00.93407
 2018-Dec-24 16:29 Nm  23 01 22.695299 -07 19 00.92026
 2018-Dec-24 16:30 Cm  23 01 22.697332 -07 19 00.90644
 2018-Dec-24 16:31 Cm  23 01 22.699364 -07 19 00.89262
 2018-Dec-24 16:32 Cm  23 01 22.701397 -07 19 00.87878
 2018-Dec-24 16:33 Cm  23 01 22.703429 -07 19 00.86495
 2018-Dec-24 16:34 Cm  23 01 22.705461 -07 19 00.85110
 2018-Dec-24 16:35 Cm  23 01 22.707494 -07 19 00.83724
 2018-Dec-24 16:36 Cm  23 01 22.709526 -07 19 00.82338
 2018-Dec-24 16:37 Cm  23 01 22.711559 -07 19 00.80951
 2018-Dec-24 16:38 Cm  23 01 22.713591 -07 19 00.79564
 2018-Dec-24 16:39 Cm  23 01 22.715624 -07 19 00.78175
 2018-Dec-24 16:40 Cm  23 01 22.717656 -07 19 00.76786
 2018-Dec-24 16:41 Cm  23 01 22.719688 -07 19 00.75396
 2018-Dec-24 16:42 Cm  23 01 22.721721 -07 19 00.74006
 2018-Dec-24 16:43 Cm  23 01 22.723753 -07 19 00.72614
